*******************************************************************************
 Revised: April 12, 2021       Solar System Barycenter                        0

 Dynamical point 
 ---------------
 The center of mass for the solar system. See object 10 for Sun ephemeris.
*******************************************************************************


*******************************************************************************
Ephemeris / WWW_USER Wed Feb  2 10:54:44 2022 Pasadena, USA      / Horizons    
*******************************************************************************
Target body name: Solar System Barycenter (0)     {source: DE441}
Center body name: Sun (10)                        {source: DE441}
Center-site name: BODYCENTRIC
*******************************************************************************
Start time      : A.D. 2014-Jan-01 00:09:00.0000 UT      
Stop  time      : A.D. 2014-Dec-31 23:59:00.0000 UT      
Step-size       : 40 minutes
*******************************************************************************
Target pole/equ : MARSIAU                         {East-longitude positive}
Target radii    : 696000.0 x 696000.0 x 696000.0 k{Equator, meridian, pole}    
Center geodetic : 0.00000000,0.00000000,0.0000000 {E-lon(deg),Lat(deg),Alt(km)}
Center cylindric: 0.00000000,0.00000000,0.0000000 {E-lon(deg),Dxy(km),Dz(km)}
Center pole/equ : IAU_SUN                         {East-longitude positive}
Center radii    : 696000.0 x 696000.0 x 696000.0 k{Equator, meridian, pole}    
Target primary  : Sun
Vis. interferer : None
Rel. light bend : Sun                             {source: DE441}
Rel. lght bnd GM: 1.3271E+11 km^3/s^2                                          
Atmos refraction: NO (AIRLESS)
RA format       : HMS
Time format     : CAL 
EOP file        : eop.220131.p220426                                           
EOP coverage    : DATA-BASED 1962-JAN-20 TO 2022-JAN-31. PREDICTS-> 2022-APR-25
Units conversion: 1 au= 149597870.700 km, c= 299792.458 km/s, 1 day= 86400.0 s 
Table cut-offs 1: Elevation (-90.0deg=NO ),Airmass     n.a.    , Daylight (NO )
Table cut-offs 2: Solar elongation (  0.0,180.0=NO ),Local Hour Angle( 0.0=NO )
Table cut-offs 3: RA/DEC angular rate (     0.0=NO )                           
*******************************************************************************
 Date__(UT)__HR:MN     R.A._____(ICRF)_____DEC             delta      deldot
****************************************************************************
$$SOE
 2014-Jun-30 12:49     09 30 54.62 +17 23 38.9  0.00262517348364   0.0023984
 2014-Jun-30 13:29     09 30 55.53 +17 23 34.7  0.00262521196430   0.0023988
 2014-Jun-30 14:09     09 30 56.44 +17 23 30.5  0.00262525045031   0.0023991
 2014-Jun-30 14:49     09 30 57.35 +17 23 26.3  0.00262528894168   0.0023994
 2014-Jun-30 15:29     09 30 58.26 +17 23 22.1  0.00262532743840   0.0023998
 2014-Jun-30 16:09     09 30 59.17 +17 23 17.9  0.00262536594047   0.0024001
 2014-Jun-30 16:49     09 31 00.08 +17 23 13.7  0.00262540444790   0.0024004
 2014-Jun-30 17:29     09 31 00.99 +17 23 09.5  0.00262544296067   0.0024008
 2014-Jun-30 18:09     09 31 01.90 +17 23 05.2  0.00262548147880   0.0024011
 2014-Jun-30 18:49     09 31 02.81 +17 23 01.0  0.00262552000228   0.0024014
 2014-Jun-30 19:29     09 31 03.72 +17 22 56.8  0.00262555853110   0.0024018
 2014-Jun-30 20:09     09 31 04.63 +17 22 52.6  0.00262559706528   0.0024021
 2014-Jun-30 20:49     09 31 05.54 +17 22 48.4  0.00262563560481   0.0024024
 2014-Jun-30 21:29     09 31 06.45 +17 22 44.2  0.00262567414968   0.0024028
 2014-Jun-30 22:09     09 31 07.36 +17 22 40.0  0.00262571269991   0.0024031
 2014-Jun-30 22:49     09 31 08.26 +17 22 35.8  0.00262575125548   0.0024034
 2014-Jun-30 23:29     09 31 09.17 +17 22 31.6  0.00262578981640   0.0024038
 2014-Jul-01 00:09     09 31 10.08 +17 22 27.4  0.00262582838267   0.0024041
 2014-Jul-01 00:49     09 31 10.99 +17 22 23.2  0.00262586695428   0.0024044
 2014-Jul-01 01:29     09 31 11.90 +17 22 19.0  0.00262590553124   0.0024048
 2014-Jul-01 02:09     09 31 12.81 +17 22 14.8  0.00262594411355   0.0024051
 2014-Jul-01 02:49     09 31 13.72 +17 22 10.6  0.00262598270120   0.0024054
 2014-Jul-01 03:29     09 31 14.63 +17 22 06.4  0.00262602129420   0.0024058
 2014-Jul-01 04:09     09 31 15.54 +17 22 02.2  0.00262605989255   0.0024061
 2014-Jul-01 04:49     09 31 16.45 +17 21 57.9  0.00262609849623   0.0024064
 2014-Jul-01 05:29     09 31 17.36 +17 21 53.7  0.00262613710526   0.0024068
 2014-Jul-01 06:09     09 31 18.26 +17 21 49.5  0.00262617571964   0.0024071
 2014-Jul-01 06:49     09 31 19.17 +17 21 45.3  0.00262621433936   0.0024074
 2014-Jul-01 07:29     09 31 20.08 +17 21 41.1  0.00262625296442   0.0024078
 2014-Jul-01 08:09     09 31 20.99 +17 21 36.9  0.00262629159482   0.0024081
 2014-Jul-01 08:49     09 31 21.90 +17 21 32.7  0.00262633023056   0.0024084
 2014-Jul-01 09:29     09 31 22.81 +17 21 28.5  0.00262636887165   0.0024088
 2014-Jul-01 10:09     09 31 23.72 +17 21 24.3  0.00262640751808   0.0024091
 2014-Jul-01 10:49     09 31 24.63 +17 21 20.1  0.00262644616984   0.0024094
 2014-Jul-01 11:29     09 31 25.53 +17 21 15.9  0.00262648482695   0.0024098
 2014-Jul-01 12:09     09 31 26.44 +17 21 11.6  0.00262652348940   0.0024101
 2014-Jul-01 12:49     09 31 27.35 +17 21 07.4  0.00262656215719   0.0024104
 2014-Jul-01 13:29     09 31 28.26 +17 21 03.2  0.00262660083031   0.0024108
 2014-Jul-01 14:09     09 31 29.17 +17 20 59.0  0.00262663950877   0.0024111
 2014-Jul-01 14:49     09 31 30.08 +17 20 54.8  0.00262667819258   0.0024114
 2014-Jul-01 15:29     09 31 30.99 +17 20 50.6  0.00262671688172   0.0024118
 2014-Jul-01 16:09     09 31 31.89 +17 20 46.4  0.00262675557619   0.0024121
 2014-Jul-01 16:49     09 31 32.80 +17 20 42.2  0.00262679427601   0.0024124
 2014-Jul-01 17:29     09 31 33.71 +17 20 38.0  0.00262683298116   0.0024128
 2014-Jul-01 18:09     09 31 34.62 +17 20 33.8  0.00262687169164   0.0024131
 2014-Jul-01 18:49     09 31 35.53 +17 20 29.5  0.00262691040746   0.0024134
 2014-Jul-01 19:29     09 31 36.44 +17 20 25.3  0.00262694912862   0.0024138
 2014-Jul-01 20:09     09 31 37.35 +17 20 21.1  0.00262698785511   0.0024141
 2014-Jul-01 20:49     09 31 38.25 +17 20 16.9  0.00262702658693   0.0024144
 2014-Jul-01 21:29     09 31 39.16 +17 20 12.7  0.00262706532409   0.0024147
 2014-Jul-01 22:09     09 31 40.07 +17 20 08.5  0.00262710406658   0.0024151
 2014-Jul-01 22:49     09 31 40.98 +17 20 04.3  0.00262714281441   0.0024154
 2014-Jul-01 23:29     09 31 41.89 +17 20 00.1  0.00262718156757   0.0024157
 2014-Jul-02 00:09     09 31 42.80 +17 19 55.8  0.00262722032605   0.0024161
 2014-Jul-02 00:49     09 31 43.70 +17 19 51.6  0.00262725908987   0.0024164
 2014-Jul-02 01:29     09 31 44.61 +17 19 47.4  0.00262729785903   0.0024167
 2014-Jul-02 02:09     09 31 45.52 +17 19 43.2  0.00262733663351   0.0024171
 2014-Jul-02 02:49     09 31 46.43 +17 19 39.0  0.00262737541332   0.0024174
 2014-Jul-02 03:29     09 31 47.34 +17 19 34.8  0.00262741419846   0.0024177
 2014-Jul-02 04:09     09 31 48.24 +17 19 30.6  0.00262745298894   0.0024181
 2014-Jul-02 04:49     09 31 49.15 +17 19 26.4  0.00262749178474   0.0024184
 2014-Jul-02 05:29     09 31 50.06 +17 19 22.1  0.00262753058587   0.0024187
 2014-Jul-02 06:09     09 31 50.97 +17 19 17.9  0.00262756939232   0.0024191
 2014-Jul-02 06:49     09 31 51.88 +17 19 13.7  0.00262760820411   0.0024194
 2014-Jul-02 07:29     09 31 52.78 +17 19 09.5  0.00262764702122   0.0024197
 2014-Jul-02 08:09     09 31 53.69 +17 19 05.3  0.00262768584366   0.0024201
 2014-Jul-02 08:49     09 31 54.60 +17 19 01.1  0.00262772467143   0.0024204
 2014-Jul-02 09:29     09 31 55.51 +17 18 56.8  0.00262776350452   0.0024207
 2014-Jul-02 10:09     09 31 56.42 +17 18 52.6  0.00262780234294   0.0024211
 2014-Jul-02 10:49     09 31 57.32 +17 18 48.4  0.00262784118668   0.0024214
 2014-Jul-02 11:29     09 31 58.23 +17 18 44.2  0.00262788003574   0.0024217
 2014-Jul-02 12:09     09 31 59.14 +17 18 40.0  0.00262791889014   0.0024221
 2014-Jul-02 12:49     09 32 00.05 +17 18 35.8  0.00262795774985   0.0024224
 2014-Jul-02 13:29     09 32 00.95 +17 18 31.6  0.00262799661489   0.0024227
 2014-Jul-02 14:09     09 32 01.86 +17 18 27.3  0.00262803548525   0.0024231
 2014-Jul-02 14:49     09 32 02.77 +17 18 23.1  0.00262807436093   0.0024234
 2014-Jul-02 15:29     09 32 03.68 +17 18 18.9  0.00262811324194   0.0024237
 2014-Jul-02 16:09     09 32 04.59 +17 18 14.7  0.00262815212827   0.0024240
 2014-Jul-02 16:49     09 32 05.49 +17 18 10.5  0.00262819101991   0.0024244
 2014-Jul-02 17:29     09 32 06.40 +17 18 06.3  0.00262822991688   0.0024247
 2014-Jul-02 18:09     09 32 07.31 +17 18 02.0  0.00262826881917   0.0024250
 2014-Jul-02 18:49     09 32 08.22 +17 17 57.8  0.00262830772678   0.0024254
 2014-Jul-02 19:29     09 32 09.12 +17 17 53.6  0.00262834663971   0.0024257
 2014-Jul-02 20:09     09 32 10.03 +17 17 49.4  0.00262838555796   0.0024260
 2014-Jul-02 20:49     09 32 10.94 +17 17 45.2  0.00262842448152   0.0024264
 2014-Jul-02 21:29     09 32 11.85 +17 17 40.9  0.00262846341041   0.0024267
 2014-Jul-02 22:09     09 32 12.75 +17 17 36.7  0.00262850234461   0.0024270
 2014-Jul-02 22:49     09 32 13.66 +17 17 32.5  0.00262854128413   0.0024274
 2014-Jul-02 23:29     09 32 14.57 +17 17 28.3  0.00262858022896   0.0024277
 2014-Jul-03 00:09     09 32 15.48 +17 17 24.1  0.00262861917911   0.0024280
 2014-Jul-03 00:49     09 32 16.38 +17 17 19.8  0.00262865813458   0.0024284
 2014-Jul-03 01:29     09 32 17.29 +17 17 15.6  0.00262869709536   0.0024287
 2014-Jul-03 02:09     09 32 18.20 +17 17 11.4  0.00262873606146   0.0024290
 2014-Jul-03 02:49     09 32 19.10 +17 17 07.2  0.00262877503287   0.0024293
 2014-Jul-03 03:29     09 32 20.01 +17 17 03.0  0.00262881400960   0.0024297
 2014-Jul-03 04:09     09 32 20.92 +17 16 58.8  0.00262885299164   0.0024300
 2014-Jul-03 04:49     09 32 21.83 +17 16 54.5  0.00262889197899   0.0024303
